HELIOS 1B               
1 25977U 99064A   21041.81324756  .00000017  00000-0  93014-5 0  9992
2 25977  98.3034 211.4168 0000490  14.7671 345.3555 14.82530826410432
TERRA                   
1 25994U 99068A   21041.95485137  .00000049  00000-0  20987-4 0  9994
2 25994  98.1892 118.6258 0001366  94.6532  15.6679 14.57125704124922
SL-16 R/B               
1 26070U 00006B   21041.67522277 -.00000242  00000-0 -99444-4 0  9991
2 26070  71.0010  32.6549 0014602 127.0429 233.2032 14.15468365 86342
MTI                     
1 26102U 00014A   21041.92975077  .00006761  00000-0  89276-4 0  9996
2 26102  97.4781 301.9551 0008486  72.2631 287.9533 15.58697631161624
TITAN 4B R/B            
1 26474U 00047B   21042.00216774  .00000076  00000-0  17489-4 0  9996
2 26474  67.9940 139.0193 0060677 293.1739  66.3018 14.96080386115002
ENVISAT                 
1 27386U 02009A   21042.01125266  .00000022  00000-0  20850-4 0  9992
2 27386  98.1433  42.5627 0001184  90.9397 287.6721 14.38012083992905
IDEFIX & ARIANE 42P R/B 
1 27422U 02021B   21041.82131832 -.00000005  00000-0  14475-4 0  9999
2 27422  98.3862 359.4296 0011090 245.2851 114.7177 14.29307874979212
AQUA                    
1 27424U 02022A   21041.90289844  .00000066  00000-0  24722-4 0  9990
2 27424  98.2174 345.0649 0001384  25.3940  67.7026 14.57108412998593
CZ-4B R/B               
1 27432U 02024C   21042.06953535 -.00000017  00000-0  15132-4 0  9996
2 27432  99.0900  54.3296 0049805 222.5065 207.5790 14.14103965967459
MIDORI II (ADEOS-II)    
1 27597U 02056A   21041.57694732  .00000015  00000-0  23566-4 0  9996
2 27597  98.5507 349.5280 0001680  51.2487 308.8844 14.27483437945780
H-2A R/B                
1 27601U 02056E   21041.93641204 -.00000081  00000-0 -14521-4 0  9994
2 27601  98.2030  71.1144 0071023 287.3430 135.1285 14.31992001948824
CZ-4B R/B               
1 28059U 03049C   21041.51580410  .00000006  00000-0  13151-4 0  9993
2 28059  98.4919 326.7463 0050963 129.9306 230.6384 14.52634135917399
CZ-2C R/B               
1 28222U 04012C   21042.18373160  .00000618  00000-0  40662-4 0  9998
2 28222  97.7112  11.8670 0045416 294.2275  75.8102 15.10697375922065
SL-16 R/B               
1 28353U 04021B   21041.78146627  .00000244  00000-0  15296-3 0  9993
2 28353  71.0016 159.4812 0006313 315.5577  44.5038 14.14239884860837
CZ-4B R/B               
1 28415U 04035C   21041.55222897  .00000040  00000-0  69546-5 0  9999
2 28415  97.5837  86.1010 0049884 260.1548  99.4045 15.07019557899496
CZ-2C R/B               
1 28480U 04046B   21042.09933852  .00000037  00000-0  29360-4 0  9998
2 28480  98.0579  64.2481 0140863 237.9774 190.6342 14.25739824844442
ARIANE 5 R/B            
1 28499U 04049H   21041.54019241  .00000057  00000-0  14576-4 0  9992
2 28499  98.0615 150.2164 0091200 223.2168 146.7746 14.80087311871316
CZ-2D R/B               
1 28738U 05024B   21041.93686887  .00000364  00000-0  24622-4 0  9995
2 28738  97.3688  62.4058 0013518  81.0615 279.2146 15.12264725857449
SUZAKU (ASTRO-EII)      
1 28773U 05025A   21041.87908766  .00000996  00000-0  43420-4 0  9999
2 28773  31.3809 265.8338 0004274  87.9066 272.2071 15.18076879860211
ALOS (DAICHI)           
1 28931U 06002A   21041.94522461  .00000147  00000-0  37456-4 0  9993
2 28931  97.8718  22.3315 0002344  66.8613 293.2837 14.62795891802561
H-2A R/B                
1 28932U 06002B   21041.94776067  .00000017  00000-0  81662-5 0  9992
2 28932  98.3318  51.5976 0087116 261.2955 156.7578 14.92439739816717
AKARI (ASTRO-F)         
1 28939U 06005A   21041.90884739  .00001992  00000-0  52859-4 0  9992
2 28939  98.2487  49.9781 0088917 208.3802 151.2582 15.35936764817475
RESURS-DK 1             
1 29228U 06021A   21042.13799947  .00000066  00000-0  12281-4 0  9990
2 29228  69.9358 300.3357 0001516 110.3147 249.8177 15.02640496808603
GENESIS 1               
1 29252U 06029A   21041.91747929  .00000312  00000-0  25048-4 0  9992
2 29252  64.5205 241.4691 0027935 337.0181  22.9690 15.18464961804308
CZ-4B R/B               
1 29507U 06046C   21041.94331937  .00000496  00000-0  43123-4 0  9992
2 29507  97.7180  68.5798 0048985  80.4077 280.2677 15.00644809781139
CZ-2C R/B               
1 31114U 07010B   21042.14458901 -.00000021  00000-0  88900-5 0  9993
2 31114  98.2378 244.6819 0058656 291.6918  67.8020 14.19346758716879
COSMO-SKYMED 1          
1 31598U 07023A   21042.12747506 -.00001658  00000-0 -20180-3 0  9995
2 31598  97.8840 227.8167 0001452  96.4907 263.6465 14.82148726740189
GENESIS 2               
1 31789U 07028A   21042.07350343  .00000351  00000-0  27519-4 0  9996
2 31789  64.5062 283.0567 0026516 215.4914 144.4446 15.17605533751376
COSMOS 2428             
1 31792U 07029A   21042.18768682 -.00000056  00000-0 -45061-5 0  9999
2 31792  70.8922 131.3624 0004315  69.1512 291.0070 14.12236872702575
SL-16 R/B               
1 31793U 07029B   21041.54025705 -.00000227  00000-0 -93738-4 0  9994
2 31793  70.9752 106.2283 0002889 269.4351 189.5300 14.14437713703320
KORONAS-FOTON           
1 33504U 09003A   21042.08376813  .00000064  00000-0  16044-5 0  9992
2 33504  82.4443 345.3440 0019194 168.5173 191.6502 15.15865454663632
H-2A R/B                
1 38341U 12025E   21041.91924060  .00000204  00000-0  31373-4 0  9995
2 38341  98.5202 218.7734 0055378 184.7689 175.3003 14.84164388472739
CUSAT 2 & FALCON 9 R/B  
1 39271U 13055G   21041.90454466  .00003107  00000-0  72534-4 0  9998
2 39271  80.9664   9.9746 0576894 171.5610 189.5828 14.50925702385273
SL-4 R/B                
1 39679U 14021B   21041.51955145 -.00000003  00000-0  18321-4 0  9998
2 39679  51.6157  82.3829 0171244  51.0235 310.5850 15.06746242374911
ALOS-2                  
1 39766U 14029A   21042.05223722  .00000172  00000-0  29842-4 0  9998
2 39766  97.9192 141.2361 0001499  95.6990 264.4386 14.79473211362978
CZ-2C R/B               
1 40306U 14071B   21041.85262684  .00003524  00000-0  71472-4 0  9994
2 40306  97.3554 357.1418 0015400  23.9168 336.2794 15.46956572350671
SL-27 R/B               
1 40354U 14084B   21041.94236119  .00000698  00000-0  17986-4 0  9994
2 40354  74.7359 254.5300 0037639 321.3162  38.5355 15.40768157344855
YAOGAN 29               
1 41038U 15069A   21042.08976638  .00000058  00000-0  14510-4 0  9991
2 41038  98.0300  35.9259 0001280 120.9052 239.2296 14.80485774281586
ASTRO-H (HITOMI)        
1 41337U 16012A   21041.89759031  .00000239  00000-0  12378-4 0  9997
2 41337  31.0054 297.8263 0012476 267.3849  92.5358 14.98782712273305
HXMT (HUIYAN)           
1 42758U 17034A   21042.22613598  .00000184  00000-0  25045-4 0  9999
2 42758  43.0159 165.9186 0008174  86.3899 346.6386 15.09057580201941
CZ-2C R/B               
1 43521U 18054D   21041.71959652  .00000353  00000-0  21367-4 0  9999
2 43521  35.1526 151.2686 0081671  59.4244 301.4497 15.11309099145218
AEOLUS                  
1 43600U 18066A   21042.17755126  .00025953  00000-0  10084-3 0  9997
2 43600  96.7174  50.9511 0007141  78.0626 282.1447 15.87092360143223
SAOCOM 1A               
1 43641U 18076A   21042.13589944  .00000032  00000-0  10519-4 0  9997
2 43641  97.8868 230.8502 0001480  80.6702 279.4674 14.82157576126950
CREW DRAGON DEMO-1 DEB  
1 44064U 19011B   21041.77887161  .00030692  00000-0  19524-3 0  9997
2 44064  51.6265 177.2432 0003136 251.4753 108.5907 15.76167596110332
CZ-2F R/B               
1 46390U 20063B   21041.69585409  .00030266  00000-0  11493-3 0  9995
2 46390  50.2017 292.6420 0009837 268.0830  91.9028 15.87233417 25230
2020-063G               
1 46395U 20063G   21041.96162128  .00011588  00000-0  59672-4 0  9997
2 46395  50.2047 294.5830 0009515 264.9310  95.0586 15.81650592 25229
